STARLINK-31720          
1 59497U 24071P   26068.12369372  .00000952  00000+0  44134-4 0  9998
2 59497  43.0029 343.4073 0003394 263.6483  96.3983 15.27582537108113
TROLL                   
1 62658U 25009BB  26068.22522958  .00013174  00000+0  48220-3 0  9994
2 62658  97.3932 150.7169 0001816  59.1850 300.9568 15.28164315118170
